{
  "type": "FeatureCollection",
  "features": [
    {
      "type": "Feature",
      "properties": {
        "norad_id": 44793,
        "name": "BEIDOU-3 M22 (C44)",
        "group": "beidou",
        "lat": 10.324729090720927,
        "lon": 119.15963880598234,
        "alt_km": 21539.585389753964,
        "timestamp": "2025-12-02T06:27:53.279187+00:00",
        "meta_object_name": "BEIDOU-3 M22 (C44)",
        "meta_object_id": "2019-078A",
        "meta_epoch": "2025-11-30T22:42:34.267680",
        "meta_mean_motion": 1.86231848,
        "meta_eccentricity": 0.00056075,
        "meta_inclination": 54.1193,
        "meta_ra_of_asc_node": 306.8002,
        "meta_arg_of_pericenter": 22.5114,
        "meta_mean_anomaly": 337.5067,
        "meta_ephemeris_type": 0,
        "meta_classification_type": "U",
        "meta_norad_cat_id": 44793,
        "meta_element_set_no": 999,
        "meta_rev_at_epoch": 4095,
        "meta_bstar": 0,
        "meta_mean_motion_dot": -5.6e-07,
        "meta_mean_motion_ddot": 0,
        "tle_line1": "1 44793U 19078A   25334.94622995 -.00000056  00000+0  00000+0 0  9995",
        "tle_line2": "2 44793  54.1193 306.8002 0005607  22.5114 337.5067  1.86231848 40954"
      },
      "geometry": {
        "type": "Point",
        "coordinates": [
          119.15963880598234,
          10.324729090720927
        ]
      }
    },
    {
      "type": "Feature",
      "properties": {
        "norad_id": 44794,
        "name": "BEIDOU-3 M21 (C43)",
        "group": "beidou",
        "lat": 51.48002989092756,
        "lon": 12.198722059781836,
        "alt_km": 21517.751543332823,
        "timestamp": "2025-12-02T06:27:53.279199+00:00",
        "meta_object_name": "BEIDOU-3 M21 (C43)",
        "meta_object_id": "2019-078B",
        "meta_epoch": "2025-12-01T02:00:26.030304",
        "meta_mean_motion": 1.86227539,
        "meta_eccentricity": 0.00038706,
        "meta_inclination": 54.0922,
        "meta_ra_of_asc_node": 306.7607,
        "meta_arg_of_pericenter": 10.0971,
        "meta_mean_anomaly": 349.9036,
        "meta_ephemeris_type": 0,
        "meta_classification_type": "U",
        "meta_norad_cat_id": 44794,
        "meta_element_set_no": 999,
        "meta_rev_at_epoch": 4096,
        "meta_bstar": 0,
        "meta_mean_motion_dot": -5.7e-07,
        "meta_mean_motion_ddot": 0,
        "tle_line1": "1 44794U 19078B   25335.08363461 -.00000057  00000+0  00000+0 0  9993",
        "tle_line2": "2 44794  54.0922 306.7607 0003870  10.0971 349.9036  1.86227539 40963"
      },
      "geometry": {
        "type": "Point",
        "coordinates": [
          12.198722059781836,
          51.48002989092756
        ]
      }
    },
    {
      "type": "Feature",
      "properties": {
        "norad_id": 44864,
        "name": "BEIDOU-3 M19 (C41)",
        "group": "beidou",
        "lat": -56.399937213823705,
        "lon": -19.606185788445195,
        "alt_km": 21486.79371404779,
        "timestamp": "2025-12-02T06:27:53.279211+00:00",
        "meta_object_name": "BEIDOU-3 M19 (C41)",
        "meta_object_id": "2019-090A",
        "meta_epoch": "2025-12-01T09:01:40.910016",
        "meta_mean_motion": 1.86231118,
        "meta_eccentricity": 0.00174903,
        "meta_inclination": 56.3832,
        "meta_ra_of_asc_node": 69.3391,
        "meta_arg_of_pericenter": 284.7373,
        "meta_mean_anomaly": 107.0465,
        "meta_ephemeris_type": 0,
        "meta_classification_type": "U",
        "meta_norad_cat_id": 44864,
        "meta_element_set_no": 999,
        "meta_rev_at_epoch": 4055,
        "meta_bstar": 0,
        "meta_mean_motion_dot": -4.1e-07,
        "meta_mean_motion_ddot": 0,
        "tle_line1": "1 44864U 19090A   25335.37616794 -.00000041  00000+0  00000+0 0  9990",
        "tle_line2": "2 44864  56.3832  69.3391 0017490 284.7373 107.0465  1.86231118 40559"
      },
      "geometry": {
        "type": "Point",
        "coordinates": [
          -19.606185788445195,
          -56.399937213823705
        ]
      }
    },
    {
      "type": "Feature",
      "properties": {
        "norad_id": 44865,
        "name": "BEIDOU-3 M20 (C42)",
        "group": "beidou",
        "lat": 0.3230099296218607,
        "lon": 69.55673248363505,
        "alt_km": 21509.634238529463,
        "timestamp": "2025-12-02T06:27:53.279222+00:00",
        "meta_object_name": "BEIDOU-3 M20 (C42)",
        "meta_object_id": "2019-090B",
        "meta_epoch": "2025-12-01T04:44:21.164352",
        "meta_mean_motion": 1.86231112,
        "meta_eccentricity": 0.0014612,
        "meta_inclination": 56.3845,
        "meta_ra_of_asc_node": 69.3793,
        "meta_arg_of_pericenter": 297.5654,
        "meta_mean_anomaly": 64.0235,
        "meta_ephemeris_type": 0,
        "meta_classification_type": "U",
        "meta_norad_cat_id": 44865,
        "meta_element_set_no": 999,
        "meta_rev_at_epoch": 4053,
        "meta_bstar": 0,
        "meta_mean_motion_dot": -3.9e-07,
        "meta_mean_motion_ddot": 0,
        "tle_line1": "1 44865U 19090B   25335.19746718 -.00000039  00000+0  00000+0 0  9998",
        "tle_line2": "2 44865  56.3845  69.3793 0014612 297.5654  64.0235  1.86231112 40536"
      },
      "geometry": {
        "type": "Point",
        "coordinates": [
          69.55673248363505,
          0.3230099296218607
        ]
      }
    },
    {
      "type": "Feature",
      "properties": {
        "norad_id": 45344,
        "name": "BEIDOU-3 G2 (C60)",
        "group": "beidou",
        "lat": -1.270825056550167,
        "lon": -111.69062030780596,
        "alt_km": 35776.82443420974,
        "timestamp": "2025-12-02T06:27:53.279233+00:00",
        "meta_object_name": "BEIDOU-3 G2 (C60)",
        "meta_object_id": "2020-017A",
        "meta_epoch": "2025-12-01T19:19:57.564768",
        "meta_mean_motion": 1.00270537,
        "meta_eccentricity": 0.0004488,
        "meta_inclination": 2.9791,
        "meta_ra_of_asc_node": 43.5319,
        "meta_arg_of_pericenter": 263.7784,
        "meta_mean_anomaly": 133.6593,
        "meta_ephemeris_type": 0,
        "meta_classification_type": "U",
        "meta_norad_cat_id": 45344,
        "meta_element_set_no": 999,
        "meta_rev_at_epoch": 2128,
        "meta_bstar": 0,
        "meta_mean_motion_dot": -1.21e-06,
        "meta_mean_motion_ddot": 0,
        "tle_line1": "1 45344U 20017A   25335.80552737 -.00000121  00000+0  00000+0 0  9998",
        "tle_line2": "2 45344   2.9791  43.5319 0004488 263.7784 133.6593  1.00270537 21284"
      },
      "geometry": {
        "type": "Point",
        "coordinates": [
          -111.69062030780596,
          -1.270825056550167
        ]
      }
    },
    {
      "type": "Feature",
      "properties": {
        "norad_id": 45807,
        "name": "BEIDOU-3 G3 (C61)",
        "group": "beidou",
        "lat": -1.0630134022044644,
        "lon": -81.22141759424574,
        "alt_km": 35789.132146885604,
        "timestamp": "2025-12-02T06:27:53.279244+00:00",
        "meta_object_name": "BEIDOU-3 G3 (C61)",
        "meta_object_id": "2020-040A",
        "meta_epoch": "2025-12-01T14:20:22.098336",
        "meta_mean_motion": 1.00267664,
        "meta_eccentricity": 0.0004952,
        "meta_inclination": 1.9619,
        "meta_ra_of_asc_node": 66.5006,
        "meta_arg_of_pericenter": 306.5523,
        "meta_mean_anomaly": 23.2908,
        "meta_ephemeris_type": 0,
        "meta_classification_type": "U",
        "meta_norad_cat_id": 45807,
        "meta_element_set_no": 999,
        "meta_rev_at_epoch": 2008,
        "meta_bstar": 0,
        "meta_mean_motion_dot": -3.32e-06,
        "meta_mean_motion_ddot": 0,
        "tle_line1": "1 45807U 20040A   25335.59747799 -.00000332  00000+0  00000+0 0  9992",
        "tle_line2": "2 45807   1.9619  66.5006 0004952 306.5523  23.2908  1.00267664 20085"
      },
      "geometry": {
        "type": "Point",
        "coordinates": [
          -81.22141759424574,
          -1.0630134022044644
        ]
      }
    },
    {
      "type": "Feature",
      "properties": {
        "norad_id": 56564,
        "name": "BEIDOU-3 G4 (C62)",
        "group": "beidou",
        "lat": 0.39399650818435794,
        "lon": -31.597421674513214,
        "alt_km": 35799.08870429977,
        "timestamp": "2025-12-02T06:27:53.279257+00:00",
        "meta_object_name": "BEIDOU-3 G4 (C62)",
        "meta_object_id": "2023-066A",
        "meta_epoch": "2025-12-01T18:00:01.061856",
        "meta_mean_motion": 1.00271114,
        "meta_eccentricity": 0.0003417,
        "meta_inclination": 0.8411,
        "meta_ra_of_asc_node": 301.0868,
        "meta_arg_of_pericenter": 233.4479,
        "meta_mean_anomaly": 326.406,
        "meta_ephemeris_type": 0,
        "meta_classification_type": "U",
        "meta_norad_cat_id": 56564,
        "meta_element_set_no": 999,
        "meta_rev_at_epoch": 941,
        "meta_bstar": 0,
        "meta_mean_motion_dot": -9e-07,
        "meta_mean_motion_ddot": 0,
        "tle_line1": "1 56564U 23066A   25335.75001229 -.00000090  00000+0  00000+0 0  9995",
        "tle_line2": "2 56564   0.8411 301.0868 0003417 233.4479 326.4060  1.00271114  9417"
      },
      "geometry": {
        "type": "Point",
        "coordinates": [
          -31.597421674513214,
          0.39399650818435794
        ]
      }
    }
  ]
}